#dP2018 10 23  0  0  0.00000000      96 __u+U ITR00 FIT  IAC
## 2024 172800.00000000   900.00000000 58414 0.0000000000000
+   91   C01C02C03C04C05C06C07C08C09C10C11C12C13C14E01E02E03
+        E04E05E07E08E09E11E12E14E18E19E21E24E25E26E27E30E31
+        G01G02G03G05G06G07G08G09G10G11G12G13G14G15G16G17G18
+        G19G20G21G22G23G24G25G26G27G28G29G30G31G32J01J02J03
+        R01R02R03R04R05R07R08R09R10R11R13R14R15R16R17R18R19
+        R20R21R22R23R24R26  0  0  0  0  0  0  0  0  0  0  0
++        12 12 12 12 12  9  9  9  8  8  8  8  8  8  6  7  7
++         6  7  6  6  7  7  7  7  6  6  6  7  7  6  6  6  7
++         3  3  3  3  3  3  3  3  3  3  3  3  3  3  3  3  3
++         3  3  3  3  3  3  3  3  3  3  3  3  3  3 10  9 11
++         5  5  5  5  5  5  5  5  5  5  5  5  6  5  5  5  5
++         5  5  6  5  6  8  0  0  0  0  0  0  0  0  0  0  0
%c M  cc GPS ccc cccc cccc cccc cccc ccccc ccccc ccccc ccccc
%c cc cc ccc ccc cccc cccc cccc cccc ccccc ccccc ccccc ccccc
%f  0.0000000  0.000000000  0.00000000000  0.000000000000000
%f  0.0000000  0.000000000  0.00000000000  0.000000000000000
%i    0    0    0    0      0      0      0      0         0
%i    0    0    0    0      0      0      0      0         0
/* INFORMATION & ANALYSIS CENTER (IAC) OF MCC   (RAPID DATA)
/* S/V CLOCKS ARE ALIGNED TO GPS & GLONASS TIME RESPECTIVELY
/* USING THE BROADCAST EPHEMERIS                            
/* PCV:IGS14_2022 OL/AL:FES2004  NONE     YN ORB:CoN CLK:CoN
*  2018 10 23 10 30  0.00000000
PC01 -32323.747124  27093.676954   -705.659473   -206.051378
PC02   4386.933372  41905.407926   -173.507529    -46.150540
PC03 -14749.570578  39498.721683   -482.766246   -222.158572
PC04 -39675.050630  14337.194914   -426.594552     75.878447
PC05  21954.619422  35997.472023    -34.992023    203.728243
PC06 -20557.308752  21726.244463  29868.937891    406.679154
PC07 -19673.326412  37558.695160   1334.161956   -107.365690
PC08  -6172.666476  27057.515979 -31587.942224      7.270996
PC09  -1213.092482  24543.248085  34442.824484    222.275655
PC10  -9132.566512  39622.723711 -11732.774457   -177.180027
PC11 -19380.623906 -17723.307187   9615.527714     -8.241702
PC12  -1182.632953 -17153.311343  22061.091617    167.212443
PC13   6825.498193  36211.200443 -20251.120455   -339.890243
PC14  -9133.536247 -13173.429219 -22790.249556    664.884005
PE01   1675.687864 -27303.653213  11307.260261   -462.154262
PE02  -1661.746271  27294.681668 -11321.724523     32.273177
PE03   2020.427769  17051.619479  24109.350936    -91.442104
PE04 -22009.648013  -8723.305552 -17766.444440   -143.522857
PE05 -19247.152630  15430.676585  16359.381167    172.112526
PE07  29190.495509  -4787.402398    937.754938    -61.751299
PE08  22090.963153   8397.457640  17814.772142   6477.414600
PE09 -29159.040975   5053.942075   -946.516718   6639.503746
PE11 -20887.279345  -2685.809609 -20804.079234   5699.685140
PE12 -21624.560549 -19587.279241  -4964.482448   5334.917904
PE14 -22412.127245   9645.009346 -18494.831991   6500.492572
PE18  25409.016415   1278.908441   7137.229539   5811.528202
PE19    216.698092 -17237.820850 -24062.873279    -11.207127
PE21  14145.530048 -24715.787512  -8053.089881   -500.875698
PE24 -18171.715829   8064.195528  21924.485858   6427.099333
PE25 -14173.569469  24701.639257   8100.991075   2005.005608
PE26   8124.339760 -15311.934439  23996.072356   5332.568848
PE27  18030.699432  -7457.841348 -22245.628842    605.372009
PE30  11655.512096  13621.584175 -23552.373266   5410.002894
PE31 -11358.722303 -14143.323725  23402.151625   1002.583776
PG01  15362.870613   -210.131726  21530.125292   -104.204730
PG02 -14831.894872 -20034.901546  -8893.677986    -38.034293
PG03  20928.475422 -10235.042633  12654.471242    152.240541
PG05 -13326.157806  -8231.322183 -21579.146406     -0.737313
PG06  -5868.805211 -25615.799236   3817.848324    345.322920
PG07   8755.869711 -16171.122915 -18751.632770    101.715822
PG08  25961.724805   5868.250450  -1269.721589   -119.596900
PG09  18415.254157  -8801.170014 -17043.251518    498.380029
PG10  -7849.793145  22024.611880  12468.468762    172.004213
PG11  20199.093302   2863.399482  16349.753961   -707.233936
PG12 -20398.036365   5376.005814  15838.145008    297.678082
PG13 -22049.167907 -12840.454091  -7531.684963    -86.381021
PG14   9778.751602  16460.656528  18784.125372    -96.487538
PG15 -26640.634132  -1660.445110   1874.131895   -342.192560
PG16  10557.481626  10312.617230 -22245.482539      2.771290
PG17    739.092335 -15098.084644  22247.215920    -40.656591
PG18  17070.953990   9876.847824  17382.645225     71.332117
PG19 -10054.516681 -15964.055861  18349.485297   -390.855133
PG20 -13604.635019  22588.704097   2483.903261    517.690198
PG21  -4741.609362  19887.474459 -16190.502308   -316.644091
PG22  19527.601901  -3072.005553  17956.130117   -554.465589
PG23  24710.037124  -2476.897187  -9675.548284   -208.029970
PG24 -17145.548796  -4421.243519  19756.488622    -57.151201
PG25 -19884.839622  16389.257890   5706.927310   -665.941796
PG26   2580.526275  18049.654694 -19266.856317     17.752291
PG27  21051.655028  11991.581607 -11274.004245     -8.591711
PG28  11193.495016 -21359.471518  11823.431145    751.132321
PG29 -19697.651490   6161.336345 -16741.603930    351.270262
PG30   1593.597178 -24006.543604 -11040.045376      6.086615
PG31   6769.292009  25413.121114   1180.732815     84.788798
PG32   1415.409078  15669.876552  21449.748120   -383.351914
PJ01 -26763.298613  32425.243559   8565.512215   -303.408069
PJ02 -26542.475335  26268.230961  23983.944708      0.334771
PJ03 -30657.556437  16737.929646 -18919.462076      0.411610
PR01  10813.676703   7035.070361  21998.361538     33.871464
PR02  23547.018721  -4915.721978   8595.803583    335.893769
PR03  20266.230600 -12653.089900  -8963.218656    146.743429
PR04   4663.124516 -12891.463055 -21504.632599    280.987631
PR05 -12676.663255  -5741.987250 -21368.133079     13.782883
PR07 -19926.873064  12768.589031   9496.862799    -49.964327
PR08  -5372.203233  13048.458022  21293.378127     20.806113
PR09 -11552.809597   3189.645225  22543.634561     34.891948
PR10  -9569.471188  19155.691923  13915.902559     34.065527
PR11  -2081.466335  25182.774243  -3651.033724    -44.782788
PR13  11176.896079  -2541.958270 -22796.366462    -15.994074
PR14   9606.383052 -19079.959931 -13908.732072     32.258793
PR15   4386.018220 -25164.939227   -874.630597    -18.148144
PR16  -6377.805792 -17029.704860  17926.228165    104.602822
PR17   9963.930858  -5486.012331  22833.823453    174.498504
PR18  -5339.247246 -15607.407263  19449.487422     26.459243
PR19 -17567.799781 -17737.698308   5260.896567    -60.911319
PR20 -19835.210222  -8714.175194 -13427.926752   -356.557448
PR21  -9595.136421   5720.406225 -22936.018980    -10.447558
PR22   7469.267662  16490.563609 -18024.444875    -64.903715
PR23  19636.243637  16257.447513   -790.594928    186.119046
PR24  19658.925627   7462.109346  14417.845925   -172.907122
PR26 -20423.953220  -9392.166208 -12073.761976     25.835997
EOF
